OUFTI-1                 
1 41458U 16025C   22133.44943956  .00011443  00000+0  49197-3 0  9996
2 41458  98.1834 297.4105 0144425  24.5705 336.2316 15.13797967332285
E-ST@R-II               
1 41459U 16025D   22133.44121147  .00009378  00000+0  41269-3 0  9993
2 41459  98.1826 296.0264 0147190  28.6681 332.2546 15.12791472332205
AAUSAT 4                
1 41460U 16025E   22133.42513939  .00013678  00000+0  54082-3 0  9992
2 41460  98.1779 301.9037 0128358   5.8165 354.4551 15.18231026332625
AIST-2D (RS-48)         
1 41465U 16026B   22133.13609002  .00010975  00000+0  27182-3 0  9991
2 41465  97.0615  10.6750 0007734 258.6850 252.6823 15.40547117338090
NUSAT-1 (FRESCO)        
1 41557U 16033B   22133.55555462  .00012126  00000+0  37302-3 0  9992
2 41557  97.3852 231.2194 0012662 139.1902 320.5124 15.33738513332039
NUSAT-2 (BATATA)        
1 41558U 16033C   22133.56203058  .00011435  00000+0  33065-3 0  9999
2 41558  97.4043 236.7336 0011878 129.4471 330.4993 15.35720520332295
CARTOSAT-2C             
1 41599U 16040A   22133.50519350 -.00012333  00000+0 -58355-3 0  9990
2 41599  97.4902 193.4067 0012156 306.6867 161.7759 15.19166853326622
SATHYABAMASAT           
1 41600U 16040B   22133.14864170  .00018444  00000+0  60711-3 0  9992
2 41600  97.2239 186.4330 0010244 238.9137 121.1100 15.31499045327496
LAPAN-A3                
1 41603U 16040E   22133.57055943  .00001311  00000+0  62806-4 0  9995
2 41603  97.2096 172.1132 0011446 285.8737 227.4836 15.20560151326731
BIROS                   
1 41604U 16040F   22133.53352580  .00004164  00000+0  17436-3 0  9996
2 41604  97.2141 179.2498 0010073 253.0377 106.9757 15.24036794327142
SWAYAM                  
1 41607U 16040J   22133.40709944  .00016317  00000+0  55016-3 0  9994
2 41607  97.2193 185.0421 0010040 239.5038 120.5212 15.30749042327412
BEESAT-4                
1 41619U 16040W   22133.14003581  .00015434  00000+0  53229-3 0  9995
2 41619  97.2204 184.7306 0008505 232.7203 127.3263 15.30040429315329
3CAT-2                  
1 41732U 16051B   22133.58130876  .00010462  00000+0  33270-3 0  9999
2 41732  97.3816  56.7233 0013770  59.8515  66.2849 15.32702092319986
PRATHAM                 
1 41783U 16059A   22133.34945181  .00000418  00000+0  89473-4 0  9997
2 41783  97.9166 176.3046 0031994 285.4348  74.3321 14.63320242300493
ALSAT 1N                
1 41789U 16059G   22133.37259070  .00000458  00000+0  94519-4 0  9992
2 41789  97.9198 180.8136 0026704 267.6593  92.1553 14.64642231300739
LISHUI 1-01             
1 41845U 16066E   22133.42443282  .00022882  00000+0  24745-2 0  9996
2 41845  98.7315 261.8323 0233701 178.7385 181.4524 14.70338709291679
CARTOSAT-2D             
1 41948U 17008A   22133.58512248  .00003423  00000+0  16561-3 0  9991
2 41948  97.4672 193.6369 0007584  92.1176 268.0925 15.19239223290505
NAYIF-1 (EO-88)         
1 42017U 17008BX  22133.14596079  .00017592  00000+0  54658-3 0  9996
2 42017  97.2717 199.7960 0005040  32.5019 327.6533 15.33398375291669
ZHUHAI-1 02 (CAS-4B)    
1 42759U 17034B   22133.56803280  .00002733  00000+0  17090-3 0  9999
2 42759  43.0168 164.9510 0007657  62.8630  72.5340 15.11625860271070
ZHUHAI-1 01 (CAS-4A)    
1 42761U 17034D   22133.53874784  .00002842  00000+0  17674-3 0  9995
2 42761  43.0166 163.9238 0008146  64.2711  65.0919 15.11717833271078
UCLSAT                  
1 42765U 17036A   22133.38490279  .00013625  00000+0  48745-3 0  9991
2 42765  97.2013 177.1605 0011593  92.2293 268.0275 15.28840108272492
NIUSAT                  
1 42766U 17036B   22133.05308510  .00010339  00000+0  40726-3 0  9992
2 42766  97.2056 172.1475 0015824  93.9662 266.3386 15.25667107271406
CARTOSAT-2E             
1 42767U 17036C   22133.48994802  .00003531  00000+0  17070-3 0  9997
2 42767  97.4563 194.4414 0008730 135.3120 322.9766 15.19238819271059
LITUANICASAT-2          
1 42768U 17036D   22133.38951465  .00025122  00000+0  77066-3 0  9996
2 42768  97.2099 179.5378 0012664  80.3342 279.9331 15.33663923271874
AALTO-1                 
1 42775U 17036L   22133.53466134  .00007673  00000+0  30852-3 0  9998
2 42775  97.2012 172.5901 0014621  91.6326 268.6587 15.25084638271457
URSA MAIOR              
1 42776U 17036M   22133.52767384  .00008612  00000+0  34083-3 0  9993
2 42776  97.2026 173.2779 0014289  90.8594 269.4282 15.25581572271485
COMPASS 2               
1 42777U 17036N   22133.35183189  .00018810  00000+0  62451-3 0  9991
2 42777  97.2087 179.0253 0011645  83.0909 277.1657 15.31199558271771
MAX VALIER SAT          
1 42778U 17036P   22133.38933471  .00009969  00000+0  38545-3 0  9994
2 42778  97.2092 175.7025 0013132  92.8942 267.3800 15.26333266271553
PEGASUS                 
1 42784U 17036V   22133.35277141  .00011943  00000+0  43797-3 0  9993
2 42784  97.2027 176.4335 0012311  94.4364 265.8283 15.28050533271658
NUDTSAT                 
1 42787U 17036Y   22133.57374428  .00017728  00000+0  57081-3 0  9994
2 42787  97.2062 180.4918 0010948  84.8652 275.3844 15.32208150271754
SUCHAI                  
1 42788U 17036Z   22133.38732391  .00015056  00000+0  52575-3 0  9996
2 42788  97.2037 178.0063 0011609  91.0086 269.2485 15.29609805271826
SKCUBE                  
1 42789U 17036AA  22133.56424358  .00012416  00000+0  44273-3 0  9991
2 42789  97.2034 177.6831 0011637  91.1829 269.0745 15.28970094271747
VZLUSAT-1               
1 42790U 17036AB  22133.38256193  .00019632  00000+0  63382-3 0  9992
2 42790  97.2062 180.2809 0010372  86.9788 273.2641 15.32106177271870
ROBUSTA-1B              
1 42792U 17036AD  22133.40006236  .00014523  00000+0  51013-3 0  9990
2 42792  97.2033 178.0614 0011188  91.7851 268.4671 15.29428993271766
D-SAT                   
1 42794U 17036AF  22133.48536677  .00001667  00000+0  14566-3 0  9994
2 42794  97.4523 140.7468 0122907 201.5442 158.0581 14.92451371266264
NORSAT 2                
1 42828U 17042D   22133.50309242  .00002240  00000+0  22202-3 0  9992
2 42828  97.4349 351.8067 0015558 117.9384 242.3413 14.92660554262954
TECHNOSAT               
1 42829U 17042E   22133.47333907  .00001430  00000+0  14676-3 0  9990
2 42829  97.4254 349.6478 0015371 121.1143 239.1587 14.91761006262874
2017-042F               
1 42830U 17042F   22133.58775130  .00004555  00000+0  42497-3 0  9995
2 42830  97.4399 353.9187 0015030 110.7305 249.5529 14.94584662263075
FLYING LAPTOP           
1 42831U 17042G   22133.51530464  .00000601  00000+0  64769-4 0  9993
2 42831  97.4283 349.9993 0015295 121.2993 238.9720 14.91703216262889
CORVUS BC2              
1 42846U 17042X   22133.56143928  .00001486  00000+0  14869-3 0  9996
2 42846  97.4275 352.8395 0010978 110.4864 249.7536 14.92788504263076
CORVUS BC1              
1 42847U 17042Y   22133.17532332  .00001337  00000+0  13393-3 0  9991
2 42847  97.4278 352.7744 0010629 110.5004 249.7358 14.92894128263024
SIMPL                   
1 42983U 98067NF  22133.13047567  .00114507  00000+0  39054-3 0  9991
2 42983  51.6329   8.2659 0004236 169.7897 190.3195 15.88926754259308
CZ-4C R/B               
1 43012U 17072C   22133.36976652  .00000391  00000+0  90441-4 0  9996
2 43012  98.7005 167.9705 0128349  65.0419 296.4048 14.56321150238754
RADFXSAT (FOX-1B)       
1 43017U 17073E   22133.51577779  .00004284  00000+0  32773-3 0  9994
2 43017  97.6794  29.1319 0248135 302.4844  55.2601 14.81167001241940
EAGLESAT 1              
1 43018U 17073F   22133.50997285  .00006624  00000+0  48803-3 0  9993
2 43018  97.6822  30.7684 0241234 296.8613  60.8124 14.83246548241914
INS-1C                  
1 43116U 18004F   22133.51417131  .00012202  00000+0  43403-3 0  9995
2 43116  97.3775 209.8023 0009651 116.3985 243.8246 15.29081325240992
FLOCK 3P'-3             
1 43119U 18004J   22133.43849756  .00006208  00000+0  23859-3 0  9993
2 43119  97.3764 207.9062 0010950 124.0420 236.1860 15.26727404240875
FLOCK 3P'-2             
1 43120U 18004K   22133.17258054  .00007862  00000+0  30593-3 0  9991
2 43120  97.3772 207.2791 0010655 126.8544 233.3673 15.26232012240807
FLOCK 3P'-1             
1 43121U 18004L   22133.49338082  .00025944  00000+0  77261-3 0  9991
2 43121  97.3785 211.9673 0008805 114.4112 245.8050 15.34641717241073
FLOCK 3P'-4             
1 43122U 18004M   22133.48699137  .00008330  00000+0  32375-3 0  9999
2 43122  97.3780 207.7541 0010734 127.7170 232.5043 15.26249239240855
MICROMAS-2A             
1 43131U 18004W   22133.48804654  .00023965  00000+0  71764-3 0  9997
2 43131  97.3769 212.7224 0008158 117.6308 242.5764 15.34487565241211
PICSAT                  
1 43132U 18004X   22133.46075541  .00015407  00000+0  52555-3 0  9990
2 43132  97.3731 210.0508 0009371 121.5694 238.6463 15.30393800241055
CNUSAIL-1               
1 43133U 18004Y   22133.46832397  .00010321  00000+0  38053-3 0  9998
2 43133  97.3693 208.2074 0009957 124.0647 236.1539 15.27944040240955
2018-004Z               
1 43134U 18004Z   22133.17362919  .00012919  00000+0  45597-3 0  9991
2 43134  97.3719 209.1163 0009523 123.5765 236.6385 15.29321876240972
FOX-1D (AO-92)          
1 43137U 18004AC  22133.47687794  .00011335  00000+0  40897-3 0  9997
2 43137  97.3700 208.9631 0009399 123.3605 236.8536 15.28635108241004
STEP CUBE LAB           
1 43138U 18004AD  22133.43769093  .00021030  00000+0  66181-3 0  9994
2 43138  97.3765 212.1553 0008504 120.1493 240.0593 15.32932161241175
XIAOXIANG-2             
1 43155U 18008A   22133.57037478  .00006288  00000+0  34116-3 0  9998
2 43155  97.3547 193.0956 0014702 264.3089 231.8777 15.14805344237994
ZHOU ENLAI              
1 43156U 18008B   22133.50903706  .00006524  00000+0  35669-3 0  9995
2 43156  97.3597 192.9020 0012094 264.6882 202.7724 15.14548751237913
QUANTUTONG 1            
1 43158U 18008D   22133.12867422  .00005429  00000+0  30545-3 0  9990
2 43158  97.3547 190.5832 0011289 267.9861 145.2621 15.13607058237768
